[
    {
        "Altitude(m)": 604969.0891613656,
        "Argument of Periapsis(deg)": 0.0,
        "Eccentricity": 0.0,
        "Inclination(deg)": 60.0,
        "Latitude(deg)": -0.09268160029923911,
        "Longitude(deg)": -150.02247253315645,
        "Mean Anomaly(deg)": 0.0,
        "RAAN(deg)": 310.0,
        "Satellite Name": "Test1 1364",
        "Satellite Number": 1364,
        "Semi-Major Axis(m)": 6980739.136638005,
        "Time(s)": 0
    },
    {
        "Altitude(m)": 604900.0285095208,
        "Argument of Periapsis(deg)": 0.00010418945913296404,
        "Eccentricity": 0.0,
        "Inclination(deg)": 60.0,
        "Latitude(deg)": 0.44774389069750253,
        "Longitude(deg)": -149.75434869928978,
        "Mean Anomaly(deg)": 0.620106145461853,
        "RAAN(deg)": 309.99957995086027,
        "Satellite Name": "Test1 1364",
        "Satellite Number": 1364,
        "Semi-Major Axis(m)": 6980739.136638005,
        "Time(s)": 10
    },
    {
        "Altitude(m)": 604834.1959198948,
        "Argument of Periapsis(deg)": 0.0002083789182659281,
        "Eccentricity": 0.0,
        "Inclination(deg)": 60.0,
        "Latitude(deg)": 0.9881661562117228,
        "Longitude(deg)": -149.48617345613138,
        "Mean Anomaly(deg)": 1.240212290923655,
        "RAAN(deg)": 309.99915990172053,
        "Satellite Name": "Test1 1364",
        "Satellite Number": 1364,
        "Semi-Major Axis(m)": 6980739.136638005,
        "Time(s)": 20
    },
    {
        "Altitude(m)": 604771.5977715708,
        "Argument of Periapsis(deg)": 0.00031256837739889213,
        "Eccentricity": 0.0,
        "Inclination(deg)": 60.0,
        "Latitude(deg)": 1.5285681101491995,
        "Longitude(deg)": -149.217892414252,
        "Mean Anomaly(deg)": 1.8603184363855083,
        "RAAN(deg)": 309.9987398525808,
        "Satellite Name": "Test1 1364",
        "Satellite Number": 1364,
        "Semi-Major Axis(m)": 6980739.136638005,
        "Time(s)": 30
    },
    {
        "Altitude(m)": 604712.2389137326,
        "Argument of Periapsis(deg)": 0.0004167578365318562,
        "Eccentricity": 0.0,
        "Inclination(deg)": 60.0,
        "Latitude(deg)": 2.068932644953212,
        "Longitude(deg)": -148.9494506156826,
        "Mean Anomaly(deg)": 2.48042458184731,
        "RAAN(deg)": 309.99831980344106,
        "Satellite Name": "Test1 1364",
        "Satellite Number": 1364,
        "Semi-Major Axis(m)": 6980739.136638005,
        "Time(s)": 40
    },
    {
        "Altitude(m)": 604656.1226661174,
        "Argument of Periapsis(deg)": 0.0005209472956648203,
        "Eccentricity": 0.0,
        "Inclination(deg)": 60.0,
        "Latitude(deg)": 2.60924262169543,
        "Longitude(deg)": -148.68079351047962,
        "Mean Anomaly(deg)": 3.1005307273091636,
        "RAAN(deg)": 309.99789975430133,
        "Satellite Name": "Test1 1364",
        "Satellite Number": 1364,
        "Semi-Major Axis(m)": 6980739.136638005,
        "Time(s)": 50
    },
    {
        "Altitude(m)": 604603.250820208,
        "Argument of Periapsis(deg)": 0.0006251367547977843,
        "Eccentricity": 0.0,
        "Inclination(deg)": 60.0,
        "Latitude(deg)": 3.1494808601237247,
        "Longitude(deg)": -148.41186642032758,
        "Mean Anomaly(deg)": 3.7206368727709656,
        "RAAN(deg)": 309.99747970516154,
        "Satellite Name": "Test1 1364",
        "Satellite Number": 1364,
        "Semi-Major Axis(m)": 6980739.136638005,
        "Time(s)": 60
    },
    {
        "Altitude(m)": 604553.6236411942,
        "Argument of Periapsis(deg)": 0.0007293262139307483,
        "Eccentricity": 0.0,
        "Inclination(deg)": 60.0,
        "Latitude(deg)": 3.689630128657456,
        "Longitude(deg)": -148.1426140020241,
        "Mean Anomaly(deg)": 4.340743018232819,
        "RAAN(deg)": 309.99705965602186,
        "Satellite Name": "Test1 1364",
        "Satellite Number": 1364,
        "Semi-Major Axis(m)": 6980739.136638005,
        "Time(s)": 70
    },
    {
        "Altitude(m)": 604507.2398706618,
        "Argument of Periapsis(deg)": 0.0008335156730637124,
        "Eccentricity": 0.0,
        "Inclination(deg)": 60.0,
        "Latitude(deg)": 4.229673134317896,
        "Longitude(deg)": -147.87298122369086,
        "Mean Anomaly(deg)": 4.96084916369462,
        "RAAN(deg)": 309.99663960688207,
        "Satellite Name": "Test1 1364",
        "Satellite Number": 1364,
        "Semi-Major Axis(m)": 6980739.136638005,
        "Time(s)": 80
    },
    {
        "Altitude(m)": 604464.0967300618,
        "Argument of Periapsis(deg)": 0.0009377051321966765,
        "Eccentricity": 0.0,
        "Inclination(deg)": 60.0,
        "Latitude(deg)": 4.769592512576426,
        "Longitude(deg)": -147.60291282793588,
        "Mean Anomaly(deg)": 5.580955309156474,
        "RAAN(deg)": 309.9962195577423,
        "Satellite Name": "Test1 1364",
        "Satellite Number": 1364,
        "Semi-Major Axis(m)": 6980739.136638005,
        "Time(s)": 90
    },
    {
        "Altitude(m)": 604424.1899248991,
        "Argument of Periapsis(deg)": 0.0010418945913296407,
        "Eccentricity": 0.0,
        "Inclination(deg)": 60.0,
        "Latitude(deg)": 5.309370817108049,
        "Longitude(deg)": -147.33235279481025,
        "Mean Anomaly(deg)": 6.201061454618327,
        "RAAN(deg)": 309.99579950860254,
        "Satellite Name": "Test1 1364",
        "Satellite Number": 1364,
        "Semi-Major Axis(m)": 6980739.136638005,
        "Time(s)": 100
    },
    {
        "Altitude(m)": 604387.5136496834,
        "Argument of Periapsis(deg)": 0.0011460840504626045,
        "Eccentricity": 0.0,
        "Inclination(deg)": 60.0,
        "Latitude(deg)": 5.8489905094398855,
        "Longitude(deg)": -147.06124531740508,
        "Mean Anomaly(deg)": 6.821167600080129,
        "RAAN(deg)": 309.9953794594628,
        "Satellite Name": "Test1 1364",
        "Satellite Number": 1364,
        "Semi-Major Axis(m)": 6980739.136638005,
        "Time(s)": 110
    },
    {
        "Altitude(m)": 604354.0605936147,
        "Argument of Periapsis(deg)": 0.0012502735095955685,
        "Eccentricity": 0.0,
        "Inclination(deg)": 60.0,
        "Latitude(deg)": 6.38843394847511,
        "Longitude(deg)": -146.78953426431127,
        "Mean Anomaly(deg)": 7.441273745541982,
        "RAAN(deg)": 309.9949594103231,
        "Satellite Name": "Test1 1364",
        "Satellite Number": 1364,
        "Semi-Major Axis(m)": 6980739.136638005,
        "Time(s)": 120
    },
    {
        "Altitude(m)": 604323.8219470159,
        "Argument of Periapsis(deg)": 0.0013544629687285324,
        "Eccentricity": 0.0,
        "Inclination(deg)": 60.0,
        "Latitude(deg)": 6.927683379880202,
        "Longitude(deg)": -146.51716264178734,
        "Mean Anomaly(deg)": 8.061379891003783,
        "RAAN(deg)": 309.99453936118334,
        "Satellite Name": "Test1 1364",
        "Satellite Number": 1364,
        "Semi-Major Axis(m)": 6980739.136638005,
        "Time(s)": 130
    },
    {
        "Altitude(m)": 604296.7874084774,
        "Argument of Periapsis(deg)": 0.0014586524278614966,
        "Eccentricity": 0.0,
        "Inclination(deg)": 60.0,
        "Latitude(deg)": 7.466720925324626,
        "Longitude(deg)": -146.24407356847829,
        "Mean Anomaly(deg)": 8.681486036465637,
        "RAAN(deg)": 309.9941193120436,
        "Satellite Name": "Test1 1364",
        "Satellite Number": 1364,
        "Semi-Major Axis(m)": 6980739.136638005,
        "Time(s)": 140
    },
    {
        "Altitude(m)": 604272.9451927675,
        "Argument of Periapsis(deg)": 0.0015628418869944607,
        "Eccentricity": 0.0,
        "Inclination(deg)": 60.0,
        "Latitude(deg)": 8.005528571551855,
        "Longitude(deg)": -145.9702097369109,
        "Mean Anomaly(deg)": 9.30159218192744,
        "RAAN(deg)": 309.9936992629039,
        "Satellite Name": "Test1 1364",
        "Satellite Number": 1364,
        "Semi-Major Axis(m)": 6980739.136638005,
        "Time(s)": 150
    },
    {
        "Altitude(m)": 604252.2820394496,
        "Argument of Periapsis(deg)": 0.0016670313461274247,
        "Eccentricity": 0.0,
        "Inclination(deg)": 60.0,
        "Latitude(deg)": 8.5440881592707,
        "Longitude(deg)": -145.6955128746076,
        "Mean Anomaly(deg)": 9.921698327389292,
        "RAAN(deg)": 309.99327921376414,
        "Satellite Name": "Test1 1364",
        "Satellite Number": 1364,
        "Semi-Major Axis(m)": 6980739.136638005,
        "Time(s)": 160
    },
    {
        "Altitude(m)": 604234.7832221995,
        "Argument of Periapsis(deg)": 0.0017712208052603888,
        "Eccentricity": 0.0,
        "Inclination(deg)": 60.0,
        "Latitude(deg)": 9.082381371852874,
        "Longitude(deg)": -145.41992471766386,
        "Mean Anomaly(deg)": 10.541804472851146,
        "RAAN(deg)": 309.99285916462435,
        "Satellite Name": "Test1 1364",
        "Satellite Number": 1364,
        "Semi-Major Axis(m)": 6980739.136638005,
        "Time(s)": 170
    },
    {
        "Altitude(m)": 604220.4325588931,
        "Argument of Periapsis(deg)": 0.001875410264393353,
        "Eccentricity": 0.0,
        "Inclination(deg)": 60.0,
        "Latitude(deg)": 9.62038972381726,
        "Longitude(deg)": -145.14338647101218,
        "Mean Anomaly(deg)": 11.161910618312948,
        "RAAN(deg)": 309.9924391154846,
        "Satellite Name": "Test1 1364",
        "Satellite Number": 1364,
        "Semi-Major Axis(m)": 6980739.136638005,
        "Time(s)": 180
    },
    {
        "Altitude(m)": 604209.2124223473,
        "Argument of Periapsis(deg)": 0.0019795997235263173,
        "Eccentricity": 0.0,
        "Inclination(deg)": 60.0,
        "Latitude(deg)": 10.158094549087183,
        "Longitude(deg)": -144.86583826821672,
        "Mean Anomaly(deg)": 11.782016763774802,
        "RAAN(deg)": 309.9920190663449,
        "Satellite Name": "Test1 1364",
        "Satellite Number": 1364,
        "Semi-Major Axis(m)": 6980739.136638005,
        "Time(s)": 190
    }
]